[{"OBJECT_NAME":"STARLINK-3515","OBJECT_ID":"2022-016AA","EPOCH":"2026-03-09T21:39:24.578784","MEAN_MOTION":15.08834677,"ECCENTRICITY":0.00013974,"INCLINATION":53.2185,"RA_OF_ASC_NODE":318.1644,"ARG_OF_PERICENTER":101.8565,"MEAN_ANOMALY":258.2585,"EPHEMERIS_TYPE":0,"CLASSIFICATION_TYPE":"U","NORAD_CAT_ID":51738,"ELEMENT_SET_NO":999,"REV_AT_EPOCH":22359,"BSTAR":-1.7675508e-5,"MEAN_MOTION_DOT":-5.69e-6,"MEAN_MOTION_DDOT":0},{"OBJECT_NAME":"ELECTRON KICK STAGE R\/B","OBJECT_ID":"2022-127B","EPOCH":"2026-03-09T17:09:40.821984","MEAN_MOTION":14.86457617,"ECCENTRICITY":0.01108806,"INCLINATION":98.1925,"RA_OF_ASC_NODE":123.6736,"ARG_OF_PERICENTER":332.423,"MEAN_ANOMALY":27.1129,"EPHEMERIS_TYPE":0,"CLASSIFICATION_TYPE":"U","NORAD_CAT_ID":54024,"ELEMENT_SET_NO":999,"REV_AT_EPOCH":18462,"BSTAR":0.00041708846,"MEAN_MOTION_DOT":4.056e-5,"MEAN_MOTION_DDOT":0}]
